{
    "links": {
        "self": "http://www.neowsapp.com/rest/v1/neo/3422248?api_key=iIulBulltgU6a56xZRHN4H3l9WmuAYTsLGpBGhQ2"
    },
    "id": "3422248",
    "neo_reference_id": "3422248",
    "name": "(2008 ON8)",
    "designation": "2008 ON8",
    "nasa_jpl_url": "http://ssd.jpl.nasa.gov/sbdb.cgi?sstr=3422248",
    "absolute_magnitude_h": 25.3,
    "estimated_diameter": {
        "kilometers": {
            "estimated_diameter_min": 0.0231502122,
            "estimated_diameter_max": 0.0517654482
        },
        "meters": {
            "estimated_diameter_min": 23.150212221,
            "estimated_diameter_max": 51.7654482198
        },
        "miles": {
            "estimated_diameter_min": 0.0143848705,
            "estimated_diameter_max": 0.0321655483
        },
        "feet": {
            "estimated_diameter_min": 75.9521422633,
            "estimated_diameter_max": 169.8341531374
        }
    },
    "is_potentially_hazardous_asteroid": false,
    "close_approach_data": [
        {
            "close_approach_date": "2008-07-28",
            "close_approach_date_full": "2008-Jul-28 07:16",
            "epoch_date_close_approach": 1217229360000,
            "relative_velocity": {
                "kilometers_per_second": "5.3458526792",
                "kilometers_per_hour": "19245.0696452373",
                "miles_per_hour": "11958.1378581754"
            },
            "miss_distance": {
                "astronomical": "0.0579288765",
                "lunar": "22.5343329585",
                "kilometers": "8666036.535893055",
                "miles": "5384825.405731959"
            },
            "orbiting_body": "Earth"
        }
    ],
    "orbital_data": {
        "orbit_id": "10",
        "orbit_determination_date": "2017-04-06 09:03:11",
        "first_observation_date": "2008-07-30",
        "last_observation_date": "2008-08-25",
        "data_arc_in_days": 26,
        "observations_used": 24,
        "orbit_uncertainty": "8",
        "minimum_orbit_intersection": ".04953",
        "jupiter_tisserand_invariant": "4.206",
        "epoch_osculation": "2454681.5",
        "eccentricity": ".3543948133162529",
        "semi_major_axis": "1.647776859540105",
        "inclination": "5.158112174093007",
        "ascending_node_longitude": "130.8430888593634",
        "orbital_period": "772.5845629428305",
        "perihelion_distance": "1.063813287016548",
        "perihelion_argument": "183.6559985166445",
        "aphelion_distance": "2.231740432063662",
        "perihelion_time": "2454683.040151134769",
        "mean_anomaly": "359.2823382253395",
        "mean_motion": ".4659684095016524",
        "equinox": "J2000",
        "orbit_class": {
            "orbit_class_type": "AMO",
            "orbit_class_description": "Near-Earth asteroid orbits similar to that of 1221 Amor",
            "orbit_class_range": "1.017 AU < q (perihelion) < 1.3 AU"
        }
    },
    "is_sentry_object": false
}